{
  "type": "FeatureCollection",
  "features": [
    {
      "type": "Feature",
      "properties": {
        "norad_id": 35650,
        "name": "COSMOS 2251 DEB",
        "group": "cosmos-2251-debris",
        "lat": -32.38297577973413,
        "lon": -167.82107997009354,
        "alt_km": 633.3178591730648,
        "timestamp": "2025-12-21T09:37:23.051306+00:00",
        "meta_object_name": "COSMOS 2251 DEB",
        "meta_object_id": "1993-036ANR",
        "meta_epoch": "2025-12-21T00:43:00.520896",
        "meta_mean_motion": 14.83815616,
        "meta_eccentricity": 0.0014959,
        "meta_inclination": 74.045,
        "meta_ra_of_asc_node": 2.46,
        "meta_arg_of_pericenter": 46.0258,
        "meta_mean_anomaly": 346.2318,
        "meta_ephemeris_type": 0,
        "meta_classification_type": "U",
        "meta_norad_cat_id": 35650,
        "meta_element_set_no": 999,
        "meta_rev_at_epoch": 87757,
        "meta_bstar": 0.0010844,
        "meta_mean_motion_dot": 8.984e-05,
        "meta_mean_motion_ddot": 0,
        "tle_line1": "1 35650U 93036ANR 25355.02986714  .00008984  00000+0  10844-2 0  9994",
        "tle_line2": "2 35650  74.0450   2.4600 0014959  46.0258 346.2318 14.83815616877570"
      },
      "geometry": {
        "type": "Point",
        "coordinates": [
          -167.82107997009354,
          -32.38297577973413
        ]
      }
    },
    {
      "type": "Feature",
      "properties": {
        "norad_id": 35660,
        "name": "COSMOS 2251 DEB",
        "group": "cosmos-2251-debris",
        "lat": 1.9164813976444877,
        "lon": -63.57615918533378,
        "alt_km": 727.1892288481931,
        "timestamp": "2025-12-21T09:37:23.051316+00:00",
        "meta_object_name": "COSMOS 2251 DEB",
        "meta_object_id": "1993-036APB",
        "meta_epoch": "2025-12-15T02:38:46.156416",
        "meta_mean_motion": 14.49937403,
        "meta_eccentricity": 0.00182984,
        "meta_inclination": 74.0379,
        "meta_ra_of_asc_node": 128.7781,
        "meta_arg_of_pericenter": 277.071,
        "meta_mean_anomaly": 198.1224,
        "meta_ephemeris_type": 0,
        "meta_classification_type": "U",
        "meta_norad_cat_id": 35660,
        "meta_element_set_no": 999,
        "meta_rev_at_epoch": 65905,
        "meta_bstar": 0.00040464315,
        "meta_mean_motion_dot": 1.541e-05,
        "meta_mean_motion_ddot": 0,
        "tle_line1": "1 35660U 93036APB 25349.11025644  .00001541  00000+0  40464-3 0  9998",
        "tle_line2": "2 35660  74.0379 128.7781 0018298 277.0710 198.1224 14.49937403659054"
      },
      "geometry": {
        "type": "Point",
        "coordinates": [
          -63.57615918533378,
          1.9164813976444877
        ]
      }
    },
    {
      "type": "Feature",
      "properties": {
        "norad_id": 35661,
        "name": "COSMOS 2251 DEB",
        "group": "cosmos-2251-debris",
        "lat": -55.610058906431604,
        "lon": -92.77327359108935,
        "alt_km": 598.3414742782106,
        "timestamp": "2025-12-21T09:37:23.051326+00:00",
        "meta_object_name": "COSMOS 2251 DEB",
        "meta_object_id": "1993-036APC",
        "meta_epoch": "2025-12-20T14:47:28.734720",
        "meta_mean_motion": 14.86678361,
        "meta_eccentricity": 0.0087122,
        "meta_inclination": 74.014,
        "meta_ra_of_asc_node": 64.0291,
        "meta_arg_of_pericenter": 166.2472,
        "meta_mean_anomaly": 194.1112,
        "meta_ephemeris_type": 0,
        "meta_classification_type": "U",
        "meta_norad_cat_id": 35661,
        "meta_element_set_no": 999,
        "meta_rev_at_epoch": 87985,
        "meta_bstar": 0.00048658,
        "meta_mean_motion_dot": 4.598e-05,
        "meta_mean_motion_ddot": 0,
        "tle_line1": "1 35661U 93036APC 25354.61630480  .00004598  00000+0  48658-3 0  9998",
        "tle_line2": "2 35661  74.0140  64.0291 0087122 166.2472 194.1112 14.86678361879855"
      },
      "geometry": {
        "type": "Point",
        "coordinates": [
          -92.77327359108935,
          -55.610058906431604
        ]
      }
    },
    {
      "type": "Feature",
      "properties": {
        "norad_id": 35663,
        "name": "COSMOS 2251 DEB",
        "group": "cosmos-2251-debris",
        "lat": -12.512138530723375,
        "lon": -68.38343113414717,
        "alt_km": 674.6143981427558,
        "timestamp": "2025-12-21T09:37:23.051336+00:00",
        "meta_object_name": "COSMOS 2251 DEB",
        "meta_object_id": "1993-036APE",
        "meta_epoch": "2025-12-19T23:59:07.553472",
        "meta_mean_motion": 14.65779868,
        "meta_eccentricity": 0.00057705,
        "meta_inclination": 74.0195,
        "meta_ra_of_asc_node": 110.6712,
        "meta_arg_of_pericenter": 187.908,
        "meta_mean_anomaly": 172.1999,
        "meta_ephemeris_type": 0,
        "meta_classification_type": "U",
        "meta_norad_cat_id": 35663,
        "meta_element_set_no": 999,
        "meta_rev_at_epoch": 73488,
        "meta_bstar": 0.0009843987,
        "meta_mean_motion_dot": 5.342e-05,
        "meta_mean_motion_ddot": 0,
        "tle_line1": "1 35663U 93036APE 25353.99939298  .00005342  00000+0  98440-3 0  9991",
        "tle_line2": "2 35663  74.0195 110.6712 0005770 187.9080 172.1999 14.65779868734880"
      },
      "geometry": {
        "type": "Point",
        "coordinates": [
          -68.38343113414717,
          -12.512138530723375
        ]
      }
    },
    {
      "type": "Feature",
      "properties": {
        "norad_id": 35667,
        "name": "COSMOS 2251 DEB",
        "group": "cosmos-2251-debris",
        "lat": 59.94357581667403,
        "lon": 153.2051850415813,
        "alt_km": 693.195562705394,
        "timestamp": "2025-12-21T09:37:23.051347+00:00",
        "meta_object_name": "COSMOS 2251 DEB",
        "meta_object_id": "1993-036APJ",
        "meta_epoch": "2025-12-21T01:06:26.178048",
        "meta_mean_motion": 14.60101094,
        "meta_eccentricity": 0.0019217,
        "meta_inclination": 74.055,
        "meta_ra_of_asc_node": 124.2734,
        "meta_arg_of_pericenter": 183.7599,
        "meta_mean_anomaly": 176.3426,
        "meta_ephemeris_type": 0,
        "meta_classification_type": "U",
        "meta_norad_cat_id": 35667,
        "meta_element_set_no": 999,
        "meta_rev_at_epoch": 70924,
        "meta_bstar": 0.0007594,
        "meta_mean_motion_dot": 3.634e-05,
        "meta_mean_motion_ddot": 0,
        "tle_line1": "1 35667U 93036APJ 25355.04613632  .00003634  00000+0  75940-3 0  9996",
        "tle_line2": "2 35667  74.0550 124.2734 0019217 183.7599 176.3426 14.60101094709242"
      },
      "geometry": {
        "type": "Point",
        "coordinates": [
          153.2051850415813,
          59.94357581667403
        ]
      }
    },
    {
      "type": "Feature",
      "properties": {
        "norad_id": 35668,
        "name": "COSMOS 2251 DEB",
        "group": "cosmos-2251-debris",
        "lat": -55.669762262386236,
        "lon": 179.1279527952736,
        "alt_km": 628.3336279751366,
        "timestamp": "2025-12-21T09:37:23.051357+00:00",
        "meta_object_name": "COSMOS 2251 DEB",
        "meta_object_id": "1993-036APK",
        "meta_epoch": "2025-12-20T22:24:32.418720",
        "meta_mean_motion": 14.64007061,
        "meta_eccentricity": 0.0083512,
        "meta_inclination": 74.0434,
        "meta_ra_of_asc_node": 204.7932,
        "meta_arg_of_pericenter": 307.9538,
        "meta_mean_anomaly": 51.4103,
        "meta_ephemeris_type": 0,
        "meta_classification_type": "U",
        "meta_norad_cat_id": 35668,
        "meta_element_set_no": 999,
        "meta_rev_at_epoch": 87767,
        "meta_bstar": 0.00015511,
        "meta_mean_motion_dot": 8.21e-06,
        "meta_mean_motion_ddot": 0,
        "tle_line1": "1 35668U 93036APK 25354.93370855  .00000821  00000+0  15511-3 0  9994",
        "tle_line2": "2 35668  74.0434 204.7932 0083512 307.9538  51.4103 14.64007061877671"
      },
      "geometry": {
        "type": "Point",
        "coordinates": [
          179.1279527952736,
          -55.669762262386236
        ]
      }
    },
    {
      "type": "Feature",
      "properties": {
        "norad_id": 35669,
        "name": "COSMOS 2251 DEB",
        "group": "cosmos-2251-debris",
        "lat": -7.178575742670633,
        "lon": -32.64705530942505,
        "alt_km": 933.0455984889531,
        "timestamp": "2025-12-21T09:37:23.051367+00:00",
        "meta_object_name": "COSMOS 2251 DEB",
        "meta_object_id": "1993-036APL",
        "meta_epoch": "2025-12-20T02:35:15.805248",
        "meta_mean_motion": 13.57168765,
        "meta_eccentricity": 0.03877863,
        "meta_inclination": 73.8603,
        "meta_ra_of_asc_node": 147.3718,
        "meta_arg_of_pericenter": 257.91,
        "meta_mean_anomaly": 97.8317,
        "meta_ephemeris_type": 0,
        "meta_classification_type": "U",
        "meta_norad_cat_id": 35669,
        "meta_element_set_no": 999,
        "meta_rev_at_epoch": 60889,
        "meta_bstar": 0.00066721827,
        "meta_mean_motion_dot": 7.5e-06,
        "meta_mean_motion_ddot": 0,
        "tle_line1": "1 35669U 93036APL 25354.10782182  .00000750  00000+0  66722-3 0  9995",
        "tle_line2": "2 35669  73.8603 147.3718 0387786 257.9100  97.8317 13.57168765608897"
      },
      "geometry": {
        "type": "Point",
        "coordinates": [
          -32.64705530942505,
          -7.178575742670633
        ]
      }
    }
  ]
}